start=new Date('2023-03-10T00:00:00.000Z').valueOf();
sats=[{"SEMIMAJOR_AXIS":"6925.348","TLE_LINE1":"1 48599U 21041AY  23068.24399180  .00009890  00000-0  68191-3 0  9992","SITE":"AFETR","ECCENTRICITY":"0.00007520","OBJECT_TYPE":"PAYLOAD","TLE_LINE2":"2 48599  53.0531 358.7604 0000752 105.7548 254.3524 15.06400340101427","GP_ID":"227767486","REF_FRAME":"TEME","FILE":"3855951","MEAN_MOTION":"15.06400340","EPHEMERIS_TYPE":"0","APOAPSIS":"547.733","OBJECT_NAME":"STARLINK-2274","TIME_SYSTEM":"UTC","CLASSIFICATION_TYPE":"U","INCLINATION":"53.0531","BSTAR":"0.00068191000000","PERIAPSIS":"546.692","EPOCH":"2023-03-09T05:51:20.891520","COUNTRY_CODE":"US","REV_AT_EPOCH":"10142","LAUNCH_DATE":"2021-05-15","MEAN_ELEMENT_THEORY":"SGP4","PERIOD":"95.592","MEAN_MOTION_DOT":"0.00009890","RA_OF_ASC_NODE":"358.7604","RCS_SIZE":"LARGE","MEAN_MOTION_DDOT":"0.0000000000000","NORAD_CAT_ID":"48599","ELEMENT_SET_NO":"999","DECAY_DATE":null,"OBJECT_ID":"2021-041AY","ARG_OF_PERICENTER":"105.7548","CENTER_NAME":"EARTH","MEAN_ANOMALY":"254.3524"},{"EPHEMERIS_TYPE":"0","FILE":"3855951","MEAN_MOTION":"15.06419151","APOAPSIS":"547.954","OBJECT_NAME":"STARLINK-2275","TIME_SYSTEM":"UTC","CLASSIFICATION_TYPE":"U","INCLINATION":"53.0548","BSTAR":"0.00605290000000","EPOCH":"2023-03-09T03:34:00.446592","PERIAPSIS":"546.356","TLE_LINE1":"1 48600U 21041AZ  23068.14861628  .00091095  00000-0  60529-2 0  9999","SEMIMAJOR_AXIS":"6925.290","ECCENTRICITY":"0.00011540","SITE":"AFETR","OBJECT_TYPE":"PAYLOAD","TLE_LINE2":"2 48600  53.0548  14.1882 0001154  72.3018 287.8097 15.06419151101197","GP_ID":"227766236","REF_FRAME":"TEME","ELEMENT_SET_NO":"999","NORAD_CAT_ID":"48600","MEAN_MOTION_DDOT":"0.0000000000000","DECAY_DATE":null,"OBJECT_ID":"2021-041AZ","CENTER_NAME":"EARTH","ARG_OF_PERICENTER":"72.3018","MEAN_ANOMALY":"287.8097","COUNTRY_CODE":"US","LAUNCH_DATE":"2021-05-15","REV_AT_EPOCH":"10119","PERIOD":"95.591","MEAN_ELEMENT_THEORY":"SGP4","RA_OF_ASC_NODE":"14.1882","MEAN_MOTION_DOT":"0.00091095","RCS_SIZE":"LARGE"},{"DECAY_DATE":null,"ELEMENT_SET_NO":"999","NORAD_CAT_ID":"48602","MEAN_MOTION_DDOT":"0.0000000000000","MEAN_ANOMALY":"257.6171","CENTER_NAME":"EARTH","ARG_OF_PERICENTER":"102.4960","OBJECT_ID":"2021-041BB","PERIOD":"95.590","MEAN_ELEMENT_THEORY":"SGP4","LAUNCH_DATE":"2021-05-15","REV_AT_EPOCH":"10138","COUNTRY_CODE":"US","RCS_SIZE":"LARGE","MEAN_MOTION_DOT":"0.00044321","RA_OF_ASC_NODE":"359.5027","OBJECT_NAME":"STARLINK-2713","APOAPSIS":"547.997","EPHEMERIS_TYPE":"0","MEAN_MOTION":"15.06430314","FILE":"3855951","PERIAPSIS":"546.245","EPOCH":"2023-03-09T01:52:29.634528","BSTAR":"0.00297330000000","INCLINATION":"53.0543","CLASSIFICATION_TYPE":"U","TIME_SYSTEM":"UTC","ECCENTRICITY":"0.00012650","SITE":"AFETR","SEMIMAJOR_AXIS":"6925.256","TLE_LINE1":"1 48602U 21041BB  23068.07812077  .00044321  00000-0  29733-2 0  9999","REF_FRAME":"TEME","GP_ID":"227766485","TLE_LINE2":"2 48602  53.0543 359.5027 0001265 102.4960 257.6171 15.06430314101388","OBJECT_TYPE":"PAYLOAD"},{"DECAY_DATE":null,"ELEMENT_SET_NO":"999","MEAN_MOTION_DDOT":"0.0000000000000","NORAD_CAT_ID":"48603","OBJECT_ID":"2021-041BC","MEAN_ANOMALY":"266.8916","ARG_OF_PERICENTER":"93.2198","CENTER_NAME":"EARTH","LAUNCH_DATE":"2021-05-15","REV_AT_EPOCH":"10159","COUNTRY_CODE":"US","PERIOD":"95.591","MEAN_ELEMENT_THEORY":"SGP4","RCS_SIZE":"LARGE","RA_OF_ASC_NODE":"350.7265","MEAN_MOTION_DOT":"0.00004197","EPHEMERIS_TYPE":"0","FILE":"3855951","MEAN_MOTION":"15.06410937","OBJECT_NAME":"STARLINK-2714","APOAPSIS":"547.934","INCLINATION":"53.0563","CLASSIFICATION_TYPE":"U","TIME_SYSTEM":"UTC","EPOCH":"2023-03-09T22:04:37.005600","PERIAPSIS":"546.426","BSTAR":"0.00030039000000","SITE":"AFETR","ECCENTRICITY":"0.00010890","SEMIMAJOR_AXIS":"6925.315","TLE_LINE1":"1 48603U 21041BC  23068.91987275  .00004197  00000-0  30039-3 0  9995","OBJECT_TYPE":"PAYLOAD","REF_FRAME":"TEME","GP_ID":"227767232","TLE_LINE2":"2 48603  53.0563 350.7265 0001089  93.2198 266.8916 15.06410937101593"},{"ECCENTRICITY":"0.00010250","SITE":"AFETR","SEMIMAJOR_AXIS":"6925.229","TLE_LINE1":"1 48604U 21041BD  23068.25826782  .00042952  00000-0  28819-2 0  9991","REF_FRAME":"TEME","TLE_LINE2":"2 48604  53.0543  23.6870 0001025 109.6919 250.4181 15.06438917101077","GP_ID":"227767987","OBJECT_TYPE":"PAYLOAD","OBJECT_NAME":"STARLINK-2757","APOAPSIS":"547.804","MEAN_MOTION":"15.06438917","FILE":"3855951","EPHEMERIS_TYPE":"0","EPOCH":"2023-03-09T06:11:54.339648","PERIAPSIS":"546.384","BSTAR":"0.00288190000000","INCLINATION":"53.0543","CLASSIFICATION_TYPE":"U","TIME_SYSTEM":"UTC","MEAN_ELEMENT_THEORY":"SGP4","PERIOD":"95.590","LAUNCH_DATE":"2021-05-15","REV_AT_EPOCH":"10107","COUNTRY_CODE":"US","RCS_SIZE":"LARGE","RA_OF_ASC_NODE":"23.6870","MEAN_MOTION_DOT":"0.00042952","DECAY_DATE":null,"NORAD_CAT_ID":"48604","MEAN_MOTION_DDOT":"0.0000000000000","ELEMENT_SET_NO":"999","MEAN_ANOMALY":"250.4181","CENTER_NAME":"EARTH","ARG_OF_PERICENTER":"109.6919","OBJECT_ID":"2021-041BD"},{"TLE_LINE2":"2 48638  53.0547 359.5020 0001127  69.3068 290.8042 15.06411353 98496","GP_ID":"227767991","REF_FRAME":"TEME","OBJECT_TYPE":"PAYLOAD","TLE_LINE1":"1 48638U 21044A   23068.07717909  .00049098  00000-0  32912-2 0  9998","SEMIMAJOR_AXIS":"6925.314","SITE":"AFETR","ECCENTRICITY":"0.00011270","BSTAR":"0.00329120000000","PERIAPSIS":"546.398","EPOCH":"2023-03-09T01:51:08.273376","CLASSIFICATION_TYPE":"U","TIME_SYSTEM":"UTC","INCLINATION":"53.0547","APOAPSIS":"547.959","OBJECT_NAME":"STARLINK-2758","FILE":"3855951","MEAN_MOTION":"15.06411353","EPHEMERIS_TYPE":"0","RA_OF_ASC_NODE":"359.5020","MEAN_MOTION_DOT":"0.00049098","RCS_SIZE":"LARGE","MEAN_ELEMENT_THEORY":"SGP4","PERIOD":"95.591","COUNTRY_CODE":"US","LAUNCH_DATE":"2021-05-26","REV_AT_EPOCH":"9849","CENTER_NAME":"EARTH","ARG_OF_PERICENTER":"69.3068","MEAN_ANOMALY":"290.8042","OBJECT_ID":"2021-044A","NORAD_CAT_ID":"48638","MEAN_MOTION_DDOT":"0.0000000000000","ELEMENT_SET_NO":"999","DECAY_DATE":null},{"ELEMENT_SET_NO":"999","NORAD_CAT_ID":"48639","MEAN_MOTION_DDOT":"0.0000000000000","DECAY_DATE":null,"CENTER_NAME":"EARTH","ARG_OF_PERICENTER":"94.7472","MEAN_ANOMALY":"265.3661","OBJECT_ID":"2021-044B","PERIOD":"95.590","MEAN_ELEMENT_THEORY":"SGP4","COUNTRY_CODE":"US","LAUNCH_DATE":"2021-05-26","REV_AT_EPOCH":"9860","RA_OF_ASC_NODE":"356.2999","MEAN_MOTION_DOT":"0.00031855","RCS_SIZE":"LARGE","APOAPSIS":"547.997","OBJECT_NAME":"STARLINK-2739","EPHEMERIS_TYPE":"0","FILE":"3855951","MEAN_MOTION":"15.06429767","BSTAR":"0.00214610000000","PERIAPSIS":"546.248","EPOCH":"2023-03-09T19:00:50.208192","TIME_SYSTEM":"UTC","CLASSIFICATION_TYPE":"U","INCLINATION":"53.0541","TLE_LINE1":"1 48639U 21044B   23068.79224778  .00031855  00000-0  21461-2 0  9994","SEMIMAJOR_AXIS":"6925.257","SITE":"AFETR","ECCENTRICITY":"0.00012630","GP_ID":"227766741","TLE_LINE2":"2 48639  53.0541 356.2999 0001263  94.7472 265.3661 15.06429767 98607","REF_FRAME":"TEME","OBJECT_TYPE":"PAYLOAD"},{"EPHEMERIS_TYPE":"0","FILE":"3855951","MEAN_MOTION":"15.06430217","APOAPSIS":"548.221","OBJECT_NAME":"STARLINK-2736","CLASSIFICATION_TYPE":"U","TIME_SYSTEM":"UTC","INCLINATION":"53.0540","BSTAR":"0.00238740000000","EPOCH":"2023-03-09T02:56:14.234208","PERIAPSIS":"546.021","TLE_LINE1":"1 48640U 21044C   23068.12238697  .00035488  00000-0  23874-2 0  9994","SEMIMAJOR_AXIS":"6925.256","SITE":"AFETR","ECCENTRICITY":"0.00015890","OBJECT_TYPE":"PAYLOAD","GP_ID":"227766990","TLE_LINE2":"2 48640  53.0540 359.5849 0001589  95.9976 264.1195 15.06430217 98499","REF_FRAME":"TEME","ELEMENT_SET_NO":"999","NORAD_CAT_ID":"48640","MEAN_MOTION_DDOT":"0.0000000000000","DECAY_DATE":null,"OBJECT_ID":"2021-044C","CENTER_NAME":"EARTH","ARG_OF_PERICENTER":"95.9976","MEAN_ANOMALY":"264.1195","COUNTRY_CODE":"US","LAUNCH_DATE":"2021-05-26","REV_AT_EPOCH":"9849","PERIOD":"95.590","MEAN_ELEMENT_THEORY":"SGP4","RA_OF_ASC_NODE":"359.5849","MEAN_MOTION_DOT":"0.00035488","RCS_SIZE":"LARGE"},{"REF_FRAME":"TEME","TLE_LINE2":"2 48641  53.0542   4.2475 0001003 129.7082 230.3995 15.06428278 98437","GP_ID":"227767737","OBJECT_TYPE":"PAYLOAD","ECCENTRICITY":"0.00010030","SITE":"AFETR","SEMIMAJOR_AXIS":"6925.262","TLE_LINE1":"1 48641U 21044D   23068.13479241  .00035830  00000-0  24103-2 0  9995","EPOCH":"2023-03-09T03:14:06.064224","PERIAPSIS":"546.432","BSTAR":"0.00241030000000","INCLINATION":"53.0542","CLASSIFICATION_TYPE":"U","TIME_SYSTEM":"UTC","OBJECT_NAME":"STARLINK-2754","APOAPSIS":"547.821","MEAN_MOTION":"15.06428278","FILE":"3855951","EPHEMERIS_TYPE":"0","RCS_SIZE":"LARGE","RA_OF_ASC_NODE":"4.2475","MEAN_MOTION_DOT":"0.00035830","MEAN_ELEMENT_THEORY":"SGP4","PERIOD":"95.590","REV_AT_EPOCH":"9843","LAUNCH_DATE":"2021-05-26","COUNTRY_CODE":"US","MEAN_ANOMALY":"230.3995","CENTER_NAME":"EARTH","ARG_OF_PERICENTER":"129.7082","OBJECT_ID":"2021-044D","DECAY_DATE":null,"MEAN_MOTION_DDOT":"0.0000000000000","NORAD_CAT_ID":"48641","ELEMENT_SET_NO":"999"},{"ARG_OF_PERICENTER":"94.5875","CENTER_NAME":"EARTH","MEAN_ANOMALY":"265.5247","OBJECT_ID":"2021-044E","NORAD_CAT_ID":"48642","MEAN_MOTION_DDOT":"0.0000000000000","ELEMENT_SET_NO":"999","DECAY_DATE":null,"MEAN_MOTION_DOT":"0.00044181","RA_OF_ASC_NODE":"4.4811","RCS_SIZE":"LARGE","MEAN_ELEMENT_THEORY":"SGP4","PERIOD":"95.591","COUNTRY_CODE":"US","LAUNCH_DATE":"2021-05-26","REV_AT_EPOCH":"9842","BSTAR":"0.00296510000000","PERIAPSIS":"546.357","EPOCH":"2023-03-09T01:58:26.301504","TIME_SYSTEM":"UTC","CLASSIFICATION_TYPE":"U","INCLINATION":"53.0564","APOAPSIS":"547.966","OBJECT_NAME":"STARLINK-2646","MEAN_MOTION":"15.06416983","FILE":"3855951","EPHEMERIS_TYPE":"0","TLE_LINE2":"2 48642  53.0564   4.4811 0001162  94.5875 265.5247 15.06416983 98422","GP_ID":"227767491","REF_FRAME":"TEME","OBJECT_TYPE":"PAYLOAD","TLE_LINE1":"1 48642U 21044E   23068.08224886  .00044181  00000-0  29651-2 0  9995","SEMIMAJOR_AXIS":"6925.297","ECCENTRICITY":"0.00011620","SITE":"AFETR"}];
